ONEWEB-0400             
1 50480U 21132M   26159.51057198 -.00000003  00000+0 -39155-4 0  9996
2 50480  87.9168 337.1710 0001858  96.4626 263.6718 13.18685750220466
ONEWEB-0401             
1 50481U 21132N   26159.78372227  .00000031  00000+0  46917-4 0  9992
2 50481  87.9170 337.1137 0001701  84.1252 276.0074 13.18684569220504
ONEWEB-0402             
1 50482U 21132P   26159.74664125  .00000029  00000+0  41774-4 0  9993
2 50482  87.9166 337.1108 0001704  75.6989 284.4332 13.18685465220521
ONEWEB-0403             
1 50483U 21132Q   26159.77191861  .00000063  00000+0  12810-3 0  9995
2 50483  87.9168 337.1299 0002000  90.5052 269.6309 13.18684240220486
ONEWEB-0404             
1 50484U 21132R   26159.86256328 -.00000153  00000+0 -46876-3 0  9997
2 50484  87.8896  22.7241 0002150  85.0683 275.0690 13.11414545214606
ONEWEB-0405             
1 50485U 21132S   26159.78542262  .00000006  00000+0 -16921-4 0  9999
2 50485  87.9170 337.1114 0001845 105.2320 254.9016 13.18686332220885
ONEWEB-0406             
1 50486U 21132T   26159.77698036  .00000071  00000+0  14642-3 0  9998
2 50486  87.9164 337.1302 0002386  89.4010 270.7395 13.18684630220513
ONEWEB-0407             
1 50487U 21132U   26159.77024157  .00000096  00000+0  21025-3 0  9996
2 50487  87.9168 337.1234 0001632  91.4971 268.6348 13.18684745220458
ONEWEB-0409             
1 50488U 21132V   26159.86086412 -.00000154  00000+0 -47163-3 0  9997
2 50488  87.8901  22.7122 0002072  87.8965 272.2400 13.11415456214498
ONEWEB-0412             
1 50489U 21132W   26159.75842816  .00000063  00000+0  12584-3 0  9990
2 50489  87.9167 337.1344 0001732  81.2735 278.8594 13.18684498220548
ONEWEB-0413             
1 50490U 21132X   26159.76349420  .00000088  00000+0  19007-3 0  9990
2 50490  87.9157 337.1327 0001601  84.7000 275.4315 13.18680271220480
ONEWEB-0414             
1 50491U 21132Y   26159.52068898  .00000055  00000+0  10734-3 0  9994
2 50491  87.9169 337.1621 0001909  85.2850 274.8500 13.18684839220484
ONEWEB-0417             
1 50492U 21132Z   26159.75674794  .00000052  00000+0  98710-4 0  9996
2 50492  87.9159 337.1353 0002084  91.6113 268.5258 13.18684943220491
ONEWEB-0418             
1 50493U 21132AA  26159.76673591  .00000084  00000+0  18033-3 0  9996
2 50493  87.9170 337.1322 0002125  92.2855 267.8520 13.18684868220554
ONEWEB-0419             
1 50494U 21132AB  26159.78519951  .00000036  00000+0  59201-4 0  9998
2 50494  87.9170 337.1279 0002043  97.3021 262.8344 13.18665364220476
ONEWEB-0420             
1 50495U 21132AC  26159.75000279  .00000086  00000+0  18493-3 0  9996
2 50495  87.9162 337.1390 0001653  92.0659 268.0663 13.18685384220462
ONEWEB-0421             
1 50496U 21132AD  26159.74325337  .00000047  00000+0  85469-4 0  9996
2 50496  87.9163 337.1372 0001947  79.7149 280.4203 13.18684437220507
ONEWEB-0424             
1 50497U 21132AE  26159.78035253  .00000070  00000+0  14573-3 0  9999
2 50497  87.9162 337.1274 0001982 100.5748 259.5608 13.18684766220539
ONEWEB-0426             
1 50498U 21132AF  26159.73904992  .00000101  00000+0  22229-3 0  9992
2 50498  87.9165 337.1268 0002468  80.8280 279.3131 13.18688723220478
ONEWEB-0427             
1 50499U 21132AG  26159.77866681  .00000071  00000+0  14855-3 0  9991
2 50499  87.9170 337.1077 0002064  90.4893 269.6476 13.18684408220506
ONEWEB-0429             
1 50500U 21132AH  26159.76518012  .00000089  00000+0  19359-3 0  9998
2 50500  87.9161 337.1357 0001724  90.7148 269.4182 13.18685084220477
ONEWEB-0430             
1 50501U 21132AJ  26159.75337603  .00000122  00000+0  27789-3 0  9997
2 50501  87.9163 337.1365 0001715  98.1684 261.9643 13.18685701220516
ONEWEB-0432             
1 50502U 21132AK  26159.78735411 -.00043671  00000+0 -11241+0 0  9990
2 50502  87.9195 337.0994 0001447 118.4324 241.6953 13.18031870220474
ONEWEB-0440             
1 50503U 21132AL  26159.77360595  .00000062  00000+0  12371-3 0  9991
2 50503  87.9166 337.1276 0001655  80.9053 279.2266 13.18684568220461
ONEWEB-0450             
1 50504U 21132AM  26159.76700877  .00000052  00000+0  98412-4 0  9992
2 50504  87.9157 337.1351 0001644  92.8355 267.2965 13.18685590220493
ONEWEB-0410             
1 51622U 22012A   26159.86429701  .00000035  00000+0  56177-4 0  9990
2 51622  87.9150   7.5123 0003169  81.8081 278.3410 13.17647517212609
ONEWEB-0411             
1 51623U 22012B   26159.38458215 -.00000586  00000+0 -17156-2 0  9995
2 51623  87.8849  38.0197 0001495  97.7139 262.4158 13.10372558208133
ONEWEB-0415             
1 51624U 22012C   26159.38126670 -.00000564  00000+0 -16510-2 0  9992
2 51624  87.8844  38.0191 0001720  89.6254 270.5070 13.10372234208136
ONEWEB-0416             
1 51625U 22012D   26159.39289746 -.00000742  00000+0 -21614-2 0  9997
2 51625  87.8846  38.0356 0001945  94.5236 265.6113 13.10377098208176
ONEWEB-0422             
1 51626U 22012E   26159.49474682  .00000073  00000+0  15361-3 0  9992
2 51626  87.9148   7.5869 0001291  74.0269 286.1005 13.17648417212666
ONEWEB-0423             
1 51627U 22012F   26159.86768519  .00000034  00000+0  53865-4 0  9998
2 51627  87.9141   7.5188 0001929  83.4343 276.7008 13.17649820212600
