OBJECT_NAME,OBJECT_ID,EPOCH,MEAN_MOTION,ECCENTRICITY,INCLINATION,RA_OF_ASC_NODE,ARG_OF_PERICENTER,MEAN_ANOMALY,EPHEMERIS_TYPE,CLASSIFICATION_TYPE,NORAD_CAT_ID,ELEMENT_SET_NO,REV_AT_EPOCH,BSTAR,MEAN_MOTION_DOT,MEAN_MOTION_DDOT
ONEWEB-0400,2021-132M,2026-06-08T12:15:13.419072,13.18685750,.0001859,87.9168,337.1710,96.4626,263.6718,0,U,50480,999,22046,-.39155E-4,-.3E-7,0
ONEWEB-0401,2021-132N,2026-06-08T18:48:33.604128,13.18684569,.0001701,87.9170,337.1137,84.1252,276.0074,0,U,50481,999,22050,.46917E-4,.31E-6,0
ONEWEB-0402,2021-132P,2026-06-08T17:55:09.804000,13.18685465,.0001704,87.9166,337.1108,75.6989,284.4332,0,U,50482,999,22052,.41774E-4,.29E-6,0
ONEWEB-0403,2021-132Q,2026-06-08T18:31:33.767904,13.18684240,.0002,87.9168,337.1299,90.5052,269.6309,0,U,50483,999,22048,.1281E-3,.63E-6,0
ONEWEB-0404,2021-132R,2026-06-08T20:42:05.467392,13.11414545,.000215,87.8896,22.7241,85.0683,275.0690,0,U,50484,999,21460,-.46876E-3,-.153E-5,0
ONEWEB-0405,2021-132S,2026-06-08T18:51:00.514368,13.18686332,.0001845,87.9170,337.1114,105.2320,254.9016,0,U,50485,999,22088,-.16921E-4,.6E-7,0
ONEWEB-0406,2021-132T,2026-06-08T18:38:51.103104,13.18684630,.0002386,87.9164,337.1302,89.4010,270.7395,0,U,50486,999,22051,.14642E-3,.71E-6,0
ONEWEB-0407,2021-132U,2026-06-08T18:29:08.871648,13.18684745,.0001632,87.9168,337.1234,91.4971,268.6348,0,U,50487,999,22045,.21025E-3,.96E-6,0
ONEWEB-0409,2021-132V,2026-06-08T20:39:38.659968,13.11415456,.0002072,87.8901,22.7122,87.8965,272.2400,0,U,50488,999,21449,-.47163E-3,-.154E-5,0
ONEWEB-0412,2021-132W,2026-06-08T18:12:08.193024,13.18684498,.0001732,87.9167,337.1344,81.2735,278.8594,0,U,50489,999,22054,.12584E-3,.63E-6,0
ONEWEB-0413,2021-132X,2026-06-08T18:19:25.898880,13.18680271,.0001601,87.9157,337.1327,84.7000,275.4315,0,U,50490,999,22048,.19007E-3,.88E-6,0
ONEWEB-0414,2021-132Y,2026-06-08T12:29:47.527008,13.18684839,.000191,87.9169,337.1621,85.2850,274.8500,0,U,50491,999,22048,.10734E-3,.55E-6,0
ONEWEB-0417,2021-132Z,2026-06-08T18:09:43.022016,13.18684943,.0002084,87.9159,337.1353,91.6113,268.5258,0,U,50492,999,22049,.9871E-4,.52E-6,0
ONEWEB-0418,2021-132AA,2026-06-08T18:24:05.982624,13.18684868,.0002125,87.9170,337.1322,92.2855,267.8520,0,U,50493,999,22055,.18033E-3,.84E-6,0
ONEWEB-0419,2021-132AB,2026-06-08T18:50:41.237664,13.18665364,.0002043,87.9170,337.1279,97.3021,262.8344,0,U,50494,999,22047,.59201E-4,.36E-6,0
ONEWEB-0420,2021-132AC,2026-06-08T18:00:00.241056,13.18685384,.0001653,87.9162,337.1390,92.0659,268.0663,0,U,50495,999,22046,.18493E-3,.86E-6,0
ONEWEB-0421,2021-132AD,2026-06-08T17:50:17.091168,13.18684437,.0001947,87.9163,337.1372,79.7149,280.4203,0,U,50496,999,22050,.85469E-4,.47E-6,0
ONEWEB-0424,2021-132AE,2026-06-08T18:43:42.458592,13.18684766,.0001982,87.9162,337.1274,100.5748,259.5608,0,U,50497,999,22053,.14573E-3,.7E-6,0
ONEWEB-0426,2021-132AF,2026-06-08T17:44:13.913088,13.18688723,.0002468,87.9165,337.1268,80.8280,279.3131,0,U,50498,999,22047,.22229E-3,.101E-5,0
ONEWEB-0427,2021-132AG,2026-06-08T18:41:16.812384,13.18684408,.0002064,87.9170,337.1077,90.4893,269.6476,0,U,50499,999,22050,.14855E-3,.71E-6,0
ONEWEB-0429,2021-132AH,2026-06-08T18:21:51.562368,13.18685084,.0001724,87.9161,337.1357,90.7148,269.4182,0,U,50500,999,22047,.19359E-3,.89E-6,0
ONEWEB-0430,2021-132AJ,2026-06-08T18:04:51.688992,13.18685701,.0001715,87.9163,337.1365,98.1684,261.9643,0,U,50501,999,22051,.27789E-3,.122E-5,0
ONEWEB-0432,2021-132AK,2026-06-08T18:53:47.395104,13.18031870,.0001447,87.9195,337.0994,118.4324,241.6953,0,U,50502,999,22047,-.11241E+0,-.43671E-3,0
ONEWEB-0440,2021-132AL,2026-06-08T18:33:59.554080,13.18684568,.0001655,87.9166,337.1276,80.9053,279.2266,0,U,50503,999,22046,.12371E-3,.62E-6,0
ONEWEB-0450,2021-132AM,2026-06-08T18:24:29.557728,13.18685590,.0001644,87.9157,337.1351,92.8355,267.2965,0,U,50504,999,22049,.98412E-4,.52E-6,0
ONEWEB-0410,2022-012A,2026-06-08T20:44:35.261664,13.17647517,.0003169,87.9150,7.5123,81.8081,278.3410,0,U,51622,999,21260,.56177E-4,.35E-6,0
ONEWEB-0411,2022-012B,2026-06-08T09:13:47.896896,13.10372558,.0001495,87.8849,38.0197,97.7139,262.4158,0,U,51623,999,20813,-.17156E-2,-.586E-5,0
ONEWEB-0415,2022-012C,2026-06-08T09:09:01.442016,13.10372234,.0001721,87.8844,38.0191,89.6254,270.5070,0,U,51624,999,20813,-.1651E-2,-.564E-5,0
ONEWEB-0416,2022-012D,2026-06-08T09:25:46.339680,13.10377098,.0001946,87.8846,38.0356,94.5236,265.6113,0,U,51625,999,20817,-.21614E-2,-.742E-5,0
ONEWEB-0422,2022-012E,2026-06-08T11:52:26.125248,13.17648417,.0001291,87.9148,7.5869,74.0269,286.1005,0,U,51626,999,21266,.15361E-3,.73E-6,0
ONEWEB-0423,2022-012F,2026-06-08T20:49:28.000416,13.17649820,.0001929,87.9141,7.5188,83.4343,276.7008,0,U,51627,999,21260,.53865E-4,.34E-6,0
